NORAD_CAT_ID,OBJECT_NAME,OBJECT_TYPE,EPOCH,MEAN_MOTION,ECCENTRICITY,INCLINATION,RA_OF_ASC_NODE,ARG_OF_PERICENTER,MEAN_ANOMALY,BSTAR,MEAN_MOTION_DOT,MEAN_MOTION_DDOT,TLE_LINE0,TLE_LINE1,TLE_LINE2,SEMIMAJOR_AXIS,PERIOD,APOGEE,PERIGEE,DECAYED
53256.0,STARLINK-4147,PAYLOAD,2023-12-19 23:35:03,15.08842049,0.0001687,53.2166,233.5258,95.6403,264.4782,-3.8275e-05,-8.97e-06,0.0,0 STARLINK-4147,1 53256U 22086Q   23353.98267452 -.00000897  00000-0 -38275-4 0  9993,2 53256  53.2166 233.5258 0001687  95.6403 264.4782 15.08842049 78495,6917.874,95.437,540.906,538.572,0.0
53256.0,STARLINK-4147,PAYLOAD,2023-12-20 21:50:27,15.08825596,0.0001798,53.2161,229.3617,75.6216,284.4976,0.00034164,5.151e-05,0.0,0 STARLINK-4147,1 53256U 22086Q   23354.91003575  .00005151  00000-0  34164-3 0  9999,2 53256  53.2161 229.3617 0001798  75.6216 284.4976 15.08825596 78816,6917.924,95.438,541.033,538.546,0.0
53256.0,STARLINK-4147,PAYLOAD,2023-12-20 23:25:49,15.0884815,0.0001884,53.2164,229.0662,106.8631,253.2568,8.0285e-05,9.9e-06,0.0,0 STARLINK-4147,1 53256U 22086Q   23354.97626977  .00000990  00000-0  80285-4 0  9994,2 53256  53.2164 229.0662 0001884 106.8631 253.2568 15.08848150 78643,6917.855,95.437,541.024,538.417,0.0
53256.0,STARLINK-4147,PAYLOAD,2023-12-21 21:41:14,15.08842196,0.0001676,53.2167,224.9001,119.585,240.5309,2.0683e-05,4.1e-07,0.0,0 STARLINK-4147,1 53256U 22086Q   23355.90363529  .00000041  00000-0  20683-4 0  9992,2 53256  53.2167 224.9001 0001676 119.5850 240.5309 15.08842196 78961,6917.874,95.437,540.898,538.579,0.0
53256.0,STARLINK-4147,PAYLOAD,2023-12-22 21:32:00,15.08850794,0.0001498,53.2151,220.4465,112.7651,247.3499,1.2713e-06,-2.68e-06,0.0,0 STARLINK-4147,1 53256U 22086Q   23356.89722961 -.00000268  00000-0  12713-5 0  9998,2 53256  53.2151 220.4465 0001498 112.7651 247.3499 15.08850794 79111,6917.847,95.437,540.749,538.676,0.0
53256.0,STARLINK-4147,PAYLOAD,2023-12-23 15:01:15,15.0884037,0.0001566,53.2155,217.1725,102.8738,257.2429,3.6119e-05,2.87e-06,0.0,0 STARLINK-4147,1 53256U 22086Q   23357.62587557  .00000287  00000-0  36119-4 0  9995,2 53256  53.2155 217.1725 0001566 102.8738 257.2429 15.08840370 79223,6917.879,95.438,540.828,538.661,0.0
53256.0,STARLINK-4147,PAYLOAD,2023-12-23 19:47:25,15.08836147,0.0001617,53.2161,216.2784,103.1042,257.0131,5.9523e-05,6.59e-06,0.0,0 STARLINK-4147,1 53256U 22086Q   23357.82459694  .00000659  00000-0  59523-4 0  9994,2 53256  53.2161 216.2784 0001617 103.1042 257.0131 15.08836147 79072,6917.892,95.438,540.876,538.639,0.0
53256.0,STARLINK-4147,PAYLOAD,2023-12-23 21:22:48,15.08836625,0.0001552,53.2161,215.9817,96.2624,263.8545,4.5887e-05,4.42e-06,0.0,0 STARLINK-4147,1 53256U 22086Q   23357.89083759  .00000442  00000-0  45887-4 0  9994,2 53256  53.2161 215.9817 0001552  96.2624 263.8545 15.08836625 79267,6917.891,95.438,540.829,538.682,0.0
53256.0,STARLINK-4147,PAYLOAD,2023-12-24 00:33:34,15.08840654,0.0001383,53.2158,215.3851,92.1726,267.9425,4.3122e-05,3.98e-06,0.0,0 STARLINK-4147,1 53256U 22086Q   23358.02331506  .00000398  00000-0  43122-4 0  9996,2 53256  53.2158 215.3851 0001383  92.1726 267.9425 15.08840654 79286,6917.878,95.438,540.7,538.787,0.0
53256.0,STARLINK-4147,PAYLOAD,2023-12-24 19:38:11,15.08847712,0.000142,53.2163,211.8167,82.0513,278.064,-1.289e-05,-4.93e-06,0.0,0 STARLINK-4147,1 53256U 22086Q   23358.81819329 -.00000493  00000-0 -12890-4 0  9993,2 53256  53.2163 211.8167 0001420  82.0513 278.0640 15.08847712 79405,6917.857,95.437,540.704,538.739,0.0
53256.0,STARLINK-4147,PAYLOAD,2023-12-25 19:28:59,15.08837326,0.000141,53.2163,207.3562,82.942,277.1732,3.3851e-05,2.51e-06,0.0,0 STARLINK-4147,1 53256U 22086Q   23359.81179890  .00000251  00000-0  33851-4 0  9996,2 53256  53.2163 207.3562 0001410  82.9420 277.1732 15.08837326 79377,6917.889,95.438,540.729,538.778,0.0
53256.0,STARLINK-4147,PAYLOAD,2023-12-26 22:30:33,15.08838785,0.0001328,53.216,202.3013,95.3498,264.7645,-0.00011029,-2.043e-05,0.0,0 STARLINK-4147,1 53256U 22086Q   23360.93788287 -.00002043  00000-0 -11029-3 0  9992,2 53256  53.2160 202.3013 0001328  95.3498 264.7645 15.08838785 79725,6917.884,95.438,540.668,538.83,0.0
53256.0,STARLINK-4147,PAYLOAD,2023-12-27 00:05:56,15.08842949,0.0001306,53.2162,202.0038,86.3577,273.7564,-0.00021193,-3.659e-05,0.0,0 STARLINK-4147,1 53256U 22086Q   23361.00412356 -.00003659  00000-0 -21193-3 0  9999,2 53256  53.2162 202.0038 0001306  86.3577 273.7564 15.08842949 79553,6917.871,95.437,540.64,538.833,0.0
53256.0,STARLINK-4147,PAYLOAD,2023-12-27 22:21:20,15.08835854,0.0001266,53.2158,197.8414,88.7058,271.4079,2.5781e-06,-2.47e-06,0.0,0 STARLINK-4147,1 53256U 22086Q   23361.93148552 -.00000247  00000-0  25781-5 0  9993,2 53256  53.2158 197.8414 0001266  88.7058 271.4079 15.08835854 79870,6917.893,95.438,540.634,538.882,0.0
53256.0,STARLINK-4147,PAYLOAD,2023-12-28 12:39:48,15.08833757,0.0001283,53.216,195.1641,86.1515,273.9623,0.00012176,1.65e-05,0.0,0 STARLINK-4147,1 53256U 22086Q   23362.52764310  .00001650  00000-0  12176-3 0  9995,2 53256  53.2160 195.1641 0001283  86.1515 273.9623 15.08833757 79787,6917.899,95.438,540.652,538.877,0.0
53256.0,STARLINK-4147,PAYLOAD,2023-12-28 14:15:11,15.08834847,0.000127,53.2159,194.8671,87.0083,273.1055,0.00012908,1.767e-05,0.0,0 STARLINK-4147,1 53256U 22086Q   23362.59388231  .00001767  00000-0  12908-3 0  9998,2 53256  53.2159 194.8671 0001270  87.0083 273.1055 15.08834847 79973,6917.896,95.438,540.64,538.883,0.0
53256.0,STARLINK-4147,PAYLOAD,2023-12-28 20:36:43,15.08837096,0.0001293,53.216,193.6776,86.1794,273.9346,0.00013984,1.938e-05,0.0,0 STARLINK-4147,1 53256U 22086Q   23362.85884138  .00001938  00000-0  13984-3 0  9999,2 53256  53.2160 193.6776 0001293  86.1794 273.9346 15.08837096 80019,6917.889,95.438,540.649,538.86,0.0
53256.0,STARLINK-4147,PAYLOAD,2023-12-29 12:30:35,15.08840699,0.0001313,53.2159,190.7038,85.6302,274.484,0.00011048,1.471e-05,0.0,0 STARLINK-4147,1 53256U 22086Q   23363.52124090  .00001471  00000-0  11048-3 0  9999,2 53256  53.2159 190.7038 0001313  85.6302 274.4840 15.08840699 80117,6917.878,95.438,540.652,538.835,0.0
53256.0,STARLINK-4147,PAYLOAD,2023-12-29 18:52:07,15.08844314,0.000133,53.216,189.5147,83.8506,276.2638,9.8342e-05,1.278e-05,0.0,0 STARLINK-4147,1 53256U 22086Q   23363.78619876  .00001278  00000-0  98342-4 0  9996,2 53256  53.2160 189.5147 0001330  83.8506 276.2638 15.08844314 79976,6917.867,95.437,540.652,538.812,0.0
53256.0,STARLINK-4147,PAYLOAD,2023-12-30 12:21:22,15.08844256,0.0001418,53.2167,186.2448,81.6162,278.4991,3.721e-05,3.04e-06,0.0,0 STARLINK-4147,1 53256U 22086Q   23364.51483930  .00000304  00000-0  37210-4 0  9994,2 53256  53.2167 186.2448 0001418  81.6162 278.4991 15.08844256 80267,6917.867,95.437,540.713,538.751,0.0
53256.0,STARLINK-4147,PAYLOAD,2023-12-30 18:42:54,15.08843627,0.0001376,53.2165,185.0548,84.2853,275.8296,2.57e-05,1.21e-06,0.0,0 STARLINK-4147,1 53256U 22086Q   23364.77979906  .00000121  00000-0  25700-4 0  9993,2 53256  53.2165 185.0548 0001376  84.2853 275.8296 15.08843627 80307,6917.869,95.437,540.686,538.782,0.0
53256.0,STARLINK-4147,PAYLOAD,2023-12-31 12:12:09,15.08840837,0.0001433,53.2166,181.7843,83.5027,276.6129,2.6161e-07,-2.84e-06,0.0,0 STARLINK-4147,1 53256U 22086Q   23365.50844029 -.00000284  00000-0  26161-6 0  9997,2 53256  53.2166 181.7843 0001433  83.5027 276.6129 15.08840837 80234,6917.878,95.438,540.734,538.751,0.0
53256.0,STARLINK-4147,PAYLOAD,2023-12-31 18:33:41,15.08839851,0.0001344,53.2164,180.5942,93.2668,266.8478,-1.1274e-05,-4.67e-06,0.0,0 STARLINK-4147,1 53256U 22086Q   23365.77340014 -.00000467  00000-0 -11274-4 0  9992,2 53256  53.2164 180.5942 0001344  93.2668 266.8478 15.08839851 80455,6917.881,95.438,540.676,538.816,0.0
53256.0,STARLINK-4147,PAYLOAD,2024-01-01 12:02:56,15.08836097,0.0001352,53.2163,177.3231,95.5996,264.5151,8.2685e-06,-1.56e-06,0.0,0 STARLINK-4147,1 53256U 22086Q   24001.50204217 -.00000156  00000-0  82685-5 0  9994,2 53256  53.2163 177.3231 0001352  95.5996 264.5151 15.08836097 80561,6917.892,95.438,540.693,538.822,0.0
53256.0,STARLINK-4147,PAYLOAD,2024-01-01 18:24:29,15.08836171,0.0001303,53.2159,176.1332,85.8319,274.2822,3.4267e-06,-2.33e-06,0.0,0 STARLINK-4147,1 53256U 22086Q   24001.76700294 -.00000233  00000-0  34267-5 0  9997,2 53256  53.2159 176.1332 0001303  85.8319 274.2822 15.08836171 80423,6917.892,95.438,540.658,538.856,0.0
53256.0,STARLINK-4147,PAYLOAD,2024-01-02 13:29:06,15.08837612,0.000129,53.2163,172.5639,86.7645,273.3495,4.1419e-05,3.71e-06,0.0,0 STARLINK-4147,1 53256U 22086Q   24002.56188221  .00000371  00000-0  41419-4 0  9994,2 53256  53.2163 172.5639 0001290  86.7645 273.3495 15.08837612 80725,6917.888,95.438,540.645,538.86,0.0
53256.0,STARLINK-4147,PAYLOAD,2024-01-02 16:39:52,15.08839291,0.0001264,53.2164,171.969,88.0509,272.0628,5.2229e-05,5.43e-06,0.0,0 STARLINK-4147,1 53256U 22086Q   24002.69436089  .00000543  00000-0  52229-4 0  9998,2 53256  53.2164 171.9690 0001264  88.0509 272.0628 15.08839291 80742,6917.883,95.438,540.622,538.873,0.0
53256.0,STARLINK-4147,PAYLOAD,2024-01-03 14:55:19,15.08820072,0.0002334,53.2167,167.8059,53.7242,306.3965,-7.3522e-05,-1.458e-05,0.0,0 STARLINK-4147,1 53256U 22086Q   24003.62174928 -.00001458  00000-0 -73522-4 0  9990,2 53256  53.2167 167.8059 0002334  53.7242 306.3965 15.08820072 80887,6917.941,95.439,541.421,538.192,0.0
53256.0,STARLINK-4147,PAYLOAD,2024-01-03 16:30:43,15.08799269,0.0001272,53.2169,167.5087,81.8645,278.2491,-0.00025955,-4.412e-05,0.0,0 STARLINK-4147,1 53256U 22086Q   24003.68800340 -.00004412  00000-0 -25955-3 0  9999,2 53256  53.2169 167.5087 0001272  81.8645 278.2491 15.08799269 80712,6918.005,95.44,540.75,538.99,0.0
53256.0,STARLINK-4147,PAYLOAD,2024-01-04 13:10:43,15.08825805,0.0001203,53.2172,163.6424,103.8149,256.2977,-7.1431e-05,-1.424e-05,0.0,0 STARLINK-4147,1 53256U 22086Q   24004.54911076 -.00001424  00000-0 -71431-4 0  9995,2 53256  53.2172 163.6424 0001203 103.8149 256.2977 15.08825805 81022,6917.924,95.438,540.621,538.957,0.0
